{"type": "FeatureCollection", "features": [ {"type": "Feature", "properties": {"norad_id": 36539, "name": "COSMOS 2251 DEB", "group": "cosmos-2251-debris", "lat": -3.1751576072279026, "lon": -111.81369668805411, "alt_km": 681.7844990114481, "timestamp": "2025-12-06T09:34:17.311480+00:00", "meta": {"OBJECT_NAME": "COSMOS 2251 DEB", "OBJECT_ID": "1993-036BCZ", "EPOCH": "2025-12-05T22:51:39.428352", "MEAN_MOTION": 14.59227859, "ECCENTRICITY": 0.0027618, "INCLINATION": 74.0246, "RA_OF_ASC_NODE": 68.1265, "ARG_OF_PERICENTER": 214.3041, "MEAN_ANOMALY": 145.6341, "EPHEMERIS_TYPE": 0, "CLASSIFICATION_TYPE": "U", "NORAD_CAT_ID": 36539, "ELEMENT_SET_NO": 999, "REV_AT_EPOCH": 83848, "BSTAR": 0.0014037224, "MEAN_MOTION_DOT": 6.635e-05, "MEAN_MOTION_DDOT": 0}, "tle": {"line1": "1 36539U 93036BCZ 25339.95253968  .00006635  00000+0  14037-2 0  9992", "line2": "2 36539  74.0246  68.1265 0027618 214.3041 145.6341 14.59227859838485"}}, "geometry": {"type": "Point", "coordinates": [-111.81369668805411, -3.1751576072279026]}}, {"type": "Feature", "properties": {"norad_id": 36540, "name": "COSMOS 2251 DEB", "group": "cosmos-2251-debris", "lat": 15.212636205357041, "lon": 8.123926973492782, "alt_km": 700.4877246723454, "timestamp": "2025-12-06T09:34:17.311490+00:00", "meta": {"OBJECT_NAME": "COSMOS 2251 DEB", "OBJECT_ID": "1993-036BDA", "EPOCH": "2025-12-05T21:17:45.311136", "MEAN_MOTION": 14.58386947, "ECCENTRICITY": 0.00153445, "INCLINATION": 74.0281, "RA_OF_ASC_NODE": 193.5643, "ARG_OF_PERICENTER": 264.0813, "MEAN_ANOMALY": 95.8603, "EPHEMERIS_TYPE": 0, "CLASSIFICATION_TYPE": "U", "NORAD_CAT_ID": 36540, "ELEMENT_SET_NO": 999, "REV_AT_EPOCH": 85910, "BSTAR": 0.0019427177, "MEAN_MOTION_DOT": 8.998e-05, "MEAN_MOTION_DDOT": 0}, "tle": {"line1": "1 36540U 93036BDA 25339.88732999  .00008998  00000+0  19427-2 0  9994", "line2": "2 36540  74.0281 193.5643 0015344 264.0813  95.8603 14.58386947859103"}}, "geometry": {"type": "Point", "coordinates": [8.123926973492782, 15.212636205357041]}}, {"type": "Feature", "properties": {"norad_id": 36550, "name": "COSMOS 2251 DEB", "group": "cosmos-2251-debris", "lat": -2.2159043937606095, "lon": -156.42160422729526, "alt_km": 815.0188282794243, "timestamp": "2025-12-06T09:34:17.311500+00:00", "meta": {"OBJECT_NAME": "COSMOS 2251 DEB", "OBJECT_ID": "1993-036BDL", "EPOCH": "2025-12-05T23:29:18.021984", "MEAN_MOTION": 14.27168955, "ECCENTRICITY": 0.00788112, "INCLINATION": 74.0447, "RA_OF_ASC_NODE": 204.9723, "ARG_OF_PERICENTER": 257.0912, "MEAN_ANOMALY": 102.1425, "EPHEMERIS_TYPE": 0, "CLASSIFICATION_TYPE": "U", "NORAD_CAT_ID": 36550, "ELEMENT_SET_NO": 999, "REV_AT_EPOCH": 84499, "BSTAR": 0.0010210292, "MEAN_MOTION_DOT": 2.55e-05, "MEAN_MOTION_DDOT": 0}, "tle": {"line1": "1 36550U 93036BDL 25339.97868081  .00002550  00000+0  10210-2 0  9996", "line2": "2 36550  74.0447 204.9723 0078811 257.0912 102.1425 14.27168955844992"}}, "geometry": {"type": "Point", "coordinates": [-156.42160422729526, -2.2159043937606095]}}, {"type": "Feature", "properties": {"norad_id": 36551, "name": "COSMOS 2251 DEB", "group": "cosmos-2251-debris", "lat": 40.016861104701086, "lon": -166.28671040012443, "alt_km": 589.5915736307197, "timestamp": "2025-12-06T09:34:17.311510+00:00", "meta": {"OBJECT_NAME": "COSMOS 2251 DEB", "OBJECT_ID": "1993-036BDM", "EPOCH": "2025-12-05T13:46:49.483776", "MEAN_MOTION": 15.0222551, "ECCENTRICITY": 0.00508192, "INCLINATION": 73.8874, "RA_OF_ASC_NODE": 29.4559, "ARG_OF_PERICENTER": 339.5289, "MEAN_ANOMALY": 20.386, "EPHEMERIS_TYPE": 0, "CLASSIFICATION_TYPE": "U", "NORAD_CAT_ID": 36551, "ELEMENT_SET_NO": 999, "REV_AT_EPOCH": 66824, "BSTAR": 0.002330761, "MEAN_MOTION_DOT": 0.00031701, "MEAN_MOTION_DDOT": 0}, "tle": {"line1": "1 36551U 93036BDM 25339.57418384  .00031701  00000+0  23308-2 0  9992", "line2": "2 36551  73.8874  29.4559 0050819 339.5289  20.3860 15.02225510668243"}}, "geometry": {"type": "Point", "coordinates": [-166.28671040012443, 40.016861104701086]}}, {"type": "Feature", "properties": {"norad_id": 36557, "name": "COSMOS 2251 DEB", "group": "cosmos-2251-debris", "lat": -40.99014939717523, "lon": 124.28295561424665, "alt_km": 629.6449939194317, "timestamp": "2025-12-06T09:34:17.311521+00:00", "meta": {"OBJECT_NAME": "COSMOS 2251 DEB", "OBJECT_ID": "1993-036BDT", "EPOCH": "2025-12-05T17:31:03.797184", "MEAN_MOTION": 14.7773075, "ECCENTRICITY": 0.00207314, "INCLINATION": 73.9789, "RA_OF_ASC_NODE": 140.0591, "ARG_OF_PERICENTER": 291.0681, "MEAN_ANOMALY": 68.8277, "EPHEMERIS_TYPE": 0, "CLASSIFICATION_TYPE": "U", "NORAD_CAT_ID": 36557, "ELEMENT_SET_NO": 999, "REV_AT_EPOCH": 33793, "BSTAR": 0.0052902478, "MEAN_MOTION_DOT": 0.00038255, "MEAN_MOTION_DDOT": 0}, "tle": {"line1": "1 36557U 93036BDT 25339.72990506  .00038255  00000+0  52902-2 0  9999", "line2": "2 36557  73.9789 140.0591 0020731 291.0681  68.8277 14.77730750337935"}}, "geometry": {"type": "Point", "coordinates": [124.28295561424665, -40.99014939717523]}}, {"type": "Feature", "properties": {"norad_id": 36558, "name": "COSMOS 2251 DEB", "group": "cosmos-2251-debris", "lat": 50.18758260143185, "lon": -173.37400802207006, "alt_km": 712.1580104010036, "timestamp": "2025-12-06T09:34:17.311531+00:00", "meta": {"OBJECT_NAME": "COSMOS 2251 DEB", "OBJECT_ID": "1993-036BDU", "EPOCH": "2025-12-04T06:10:59.117952", "MEAN_MOTION": 14.55263226, "ECCENTRICITY": 0.0013164, "INCLINATION": 74.0418, "RA_OF_ASC_NODE": 170.6004, "ARG_OF_PERICENTER": 258.9437, "MEAN_ANOMALY": 101.0246, "EPHEMERIS_TYPE": 0, "CLASSIFICATION_TYPE": "U", "NORAD_CAT_ID": 36558, "ELEMENT_SET_NO": 999, "REV_AT_EPOCH": 85145, "BSTAR": 0.0017175, "MEAN_MOTION_DOT": 7.427e-05, "MEAN_MOTION_DDOT": 0}, "tle": {"line1": "1 36558U 93036BDU 25338.25762868  .00007427  00000+0  17175-2 0  9995", "line2": "2 36558  74.0418 170.6004 0013164 258.9437 101.0246 14.55263226851457"}}, "geometry": {"type": "Point", "coordinates": [-173.37400802207006, 50.18758260143185]}}, {"type": "Feature", "properties": {"norad_id": 36559, "name": "COSMOS 2251 DEB", "group": "cosmos-2251-debris", "lat": -1.5391283430610951, "lon": -158.91354812478224, "alt_km": 1021.5616773502124, "timestamp": "2025-12-06T09:34:17.311541+00:00", "meta": {"OBJECT_NAME": "COSMOS 2251 DEB", "OBJECT_ID": "1993-036BDV", "EPOCH": "2025-12-03T03:17:00.548160", "MEAN_MOTION": 13.95062123, "ECCENTRICITY": 0.02603187, "INCLINATION": 74.1298, "RA_OF_ASC_NODE": 26.2197, "ARG_OF_PERICENTER": 61.9669, "MEAN_ANOMALY": 300.7529, "EPHEMERIS_TYPE": 0, "CLASSIFICATION_TYPE": "U", "NORAD_CAT_ID": 36559, "ELEMENT_SET_NO": 999, "REV_AT_EPOCH": 80960, "BSTAR": 0.0032733881, "MEAN_MOTION_DOT": 5.835e-05, "MEAN_MOTION_DDOT": 0}, "tle": {"line1": "1 36559U 93036BDV 25337.13681190  .00005835  00000+0  32734-2 0  9999", "line2": "2 36559  74.1298  26.2197 0260318  61.9669 300.7529 13.95062123809606"}}, "geometry": {"type": "Point", "coordinates": [-158.91354812478224, -1.5391283430610951]}}, {"type": "Feature", "properties": {"norad_id": 36614, "name": "COSMOS 2251 DEB", "group": "cosmos-2251-debris", "lat": -39.473892369410756, "lon": 173.05045777660905, "alt_km": 693.3725582887528, "timestamp": "2025-12-06T09:34:17.311551+00:00", "meta": {"OBJECT_NAME": "COSMOS 2251 DEB", "OBJECT_ID": "1993-036BEC", "EPOCH": "2025-12-03T20:55:07.059072", "MEAN_MOTION": 14.60089968, "ECCENTRICITY": 0.0016551, "INCLINATION": 74.0216, "RA_OF_ASC_NODE": 191.525, "ARG_OF_PERICENTER": 261.9036, "MEAN_ANOMALY": 98.0252, "EPHEMERIS_TYPE": 0, "CLASSIFICATION_TYPE": "U", "NORAD_CAT_ID": 36614, "ELEMENT_SET_NO": 999, "REV_AT_EPOCH": 65483, "BSTAR": 0.0023551, "MEAN_MOTION_DOT": 0.00011335, "MEAN_MOTION_DDOT": 0}, "tle": {"line1": "1 36614U 93036BEC 25337.87160948  .00011335  00000+0  23551-2 0  9994", "line2": "2 36614  74.0216 191.5250 0016551 261.9036  98.0252 14.60089968654833"}}, "geometry": {"type": "Point", "coordinates": [173.05045777660905, -39.473892369410756]}}, {"type": "Feature", "properties": {"norad_id": 36622, "name": "COSMOS 2251 DEB", "group": "cosmos-2251-debris", "lat": 19.26516526058152, "lon": 163.65945108134457, "alt_km": 637.4970085545901, "timestamp": "2025-12-06T09:34:17.311561+00:00", "meta": {"OBJECT_NAME": "COSMOS 2251 DEB", "OBJECT_ID": "1993-036BEL", "EPOCH": "2025-12-05T18:50:31.173792", "MEAN_MOTION": 14.76102152, "ECCENTRICITY": 0.00686855, "INCLINATION": 74.0122, "RA_OF_ASC_NODE": 159.1111, "ARG_OF_PERICENTER": 295.8754, "MEAN_ANOMALY": 63.5348, "EPHEMERIS_TYPE": 0, "CLASSIFICATION_TYPE": "U", "NORAD_CAT_ID": 36622, "ELEMENT_SET_NO": 999, "REV_AT_EPOCH": 66647, "BSTAR": 0.0011321064, "MEAN_MOTION_DOT": 8.096e-05, "MEAN_MOTION_DDOT": 0}, "tle": {"line1": "1 36622U 93036BEL 25339.78508303  .00008096  00000+0  11321-2 0  9998", "line2": "2 36622  74.0122 159.1111 0068685 295.8754  63.5348 14.76102152666476"}}, "geometry": {"type": "Point", "coordinates": [163.65945108134457, 19.26516526058152]}}, {"type": "Feature", "properties": {"norad_id": 36632, "name": "COSMOS 2251 DEB", "group": "cosmos-2251-debris", "lat": -32.73507781026732, "lon": 134.8021994852114, "alt_km": 775.1469109703194, "timestamp": "2025-12-06T09:34:17.311571+00:00", "meta": {"OBJECT_NAME": "COSMOS 2251 DEB", "OBJECT_ID": "1993-036BEW", "EPOCH": "2025-12-02T14:44:27.820896", "MEAN_MOTION": 14.43079898, "ECCENTRICITY": 0.00315122, "INCLINATION": 74.0016, "RA_OF_ASC_NODE": 311.214, "ARG_OF_PERICENTER": 61.7706, "MEAN_ANOMALY": 298.6626, "EPHEMERIS_TYPE": 0, "CLASSIFICATION_TYPE": "U", "NORAD_CAT_ID": 36632, "ELEMENT_SET_NO": 999, "REV_AT_EPOCH": 65069, "BSTAR": 0.0010615143, "MEAN_MOTION_DOT": 3.557e-05, "MEAN_MOTION_DDOT": 0}, "tle": {"line1": "1 36632U 93036BEW 25336.61421089  .00003557  00000+0  10615-2 0  9995", "line2": "2 36632  74.0016 311.2140 0031512  61.7706 298.6626 14.43079898650699"}}, "geometry": {"type": "Point", "coordinates": [134.8021994852114, -32.73507781026732]}}]}